{"type": "FeatureCollection", "features": [ {"type": "Feature", "properties": {"norad_id": 29940, "name": "FENGYUN 1C DEB", "group": "fengyun-1c-debris", "lat": 5.487957326201509, "lon": 179.8952039728491, "alt_km": 823.8586229116363, "timestamp": "2025-12-15T10:55:21.415269+00:00", "meta": {"OBJECT_NAME": "FENGYUN 1C DEB", "OBJECT_ID": "1999-025JN", "EPOCH": "2025-12-14T12:48:50.111712", "MEAN_MOTION": 14.1882574, "ECCENTRICITY": 0.00747081, "INCLINATION": 98.6213, "RA_OF_ASC_NODE": 358.1643, "ARG_OF_PERICENTER": 94.7095, "MEAN_ANOMALY": 56.1689, "EPHEMERIS_TYPE": 0, "CLASSIFICATION_TYPE": "U", "NORAD_CAT_ID": 29940, "ELEMENT_SET_NO": 999, "REV_AT_EPOCH": 97513, "BSTAR": 0.00070029521, "MEAN_MOTION_DOT": 1.456e-05, "MEAN_MOTION_DDOT": 0}, "tle": {"line1": "1 29940U 99025JN  25348.53391333  .00001456  00000+0  70030-3 0  9999", "line2": "2 29940  98.6213 358.1643 0074708  94.7095  56.1689 14.18825740975135"}}, "geometry": {"type": "Point", "coordinates": [179.8952039728491, 5.487957326201509]}}, {"type": "Feature", "properties": {"norad_id": 29942, "name": "FENGYUN 1C DEB", "group": "fengyun-1c-debris", "lat": 32.18160277829782, "lon": -119.2372733546836, "alt_km": 806.1215841055591, "timestamp": "2025-12-15T10:55:21.415279+00:00", "meta": {"OBJECT_NAME": "FENGYUN 1C DEB", "OBJECT_ID": "1999-025JQ", "EPOCH": "2025-12-14T17:26:36.708864", "MEAN_MOTION": 14.30421233, "ECCENTRICITY": 0.0048852, "INCLINATION": 98.6372, "RA_OF_ASC_NODE": 54.551, "ARG_OF_PERICENTER": 270.1007, "MEAN_ANOMALY": 89.4578, "EPHEMERIS_TYPE": 0, "CLASSIFICATION_TYPE": "U", "NORAD_CAT_ID": 29942, "ELEMENT_SET_NO": 999, "REV_AT_EPOCH": 97897, "BSTAR": 0.00072697597, "MEAN_MOTION_DOT": 1.871e-05, "MEAN_MOTION_DDOT": 0}, "tle": {"line1": "1 29942U 99025JQ  25348.72681376  .00001871  00000+0  72698-3 0  9994", "line2": "2 29942  98.6372  54.5510 0048852 270.1007  89.4578 14.30421233978971"}}, "geometry": {"type": "Point", "coordinates": [-119.2372733546836, 32.18160277829782]}}, {"type": "Feature", "properties": {"norad_id": 29943, "name": "FENGYUN 1C DEB", "group": "fengyun-1c-debris", "lat": -72.54331128163594, "lon": 147.89094843866454, "alt_km": 847.151776866418, "timestamp": "2025-12-15T10:55:21.415288+00:00", "meta": {"OBJECT_NAME": "FENGYUN 1C DEB", "OBJECT_ID": "1999-025JR", "EPOCH": "2025-12-14T22:06:10.517184", "MEAN_MOTION": 14.09671447, "ECCENTRICITY": 0.00349586, "INCLINATION": 98.7269, "RA_OF_ASC_NODE": 356.6113, "ARG_OF_PERICENTER": 220.7441, "MEAN_ANOMALY": 204.5932, "EPHEMERIS_TYPE": 0, "CLASSIFICATION_TYPE": "U", "NORAD_CAT_ID": 29943, "ELEMENT_SET_NO": 999, "REV_AT_EPOCH": 97337, "BSTAR": 3.8676978e-05, "MEAN_MOTION_DOT": 2.5e-07, "MEAN_MOTION_DDOT": 0}, "tle": {"line1": "1 29943U 99025JR  25348.92095506  .00000025  00000+0  38677-4 0  9991", "line2": "2 29943  98.7269 356.6113 0034958 220.7441 204.5932 14.09671447973371"}}, "geometry": {"type": "Point", "coordinates": [147.89094843866454, -72.54331128163594]}}, {"type": "Feature", "properties": {"norad_id": 29944, "name": "FENGYUN 1C DEB", "group": "fengyun-1c-debris", "lat": 74.72163289607087, "lon": 139.37780671375603, "alt_km": 656.7638794437789, "timestamp": "2025-12-15T10:55:21.415299+00:00", "meta": {"OBJECT_NAME": "FENGYUN 1C DEB", "OBJECT_ID": "1999-025JS", "EPOCH": "2025-12-14T18:18:25.797312", "MEAN_MOTION": 14.87553537, "ECCENTRICITY": 0.0166476, "INCLINATION": 99.0027, "RA_OF_ASC_NODE": 283.1151, "ARG_OF_PERICENTER": 225.5218, "MEAN_ANOMALY": 133.2284, "EPHEMERIS_TYPE": 0, "CLASSIFICATION_TYPE": "U", "NORAD_CAT_ID": 29944, "ELEMENT_SET_NO": 999, "REV_AT_EPOCH": 484, "BSTAR": 0.00062907185, "MEAN_MOTION_DOT": 7.298e-05, "MEAN_MOTION_DDOT": 0}, "tle": {"line1": "1 29944U 99025JS  25348.76279858  .00007298  00000+0  62907-3 0  9999", "line2": "2 29944  99.0027 283.1151 0166476 225.5218 133.2284 14.87553537  4840"}}, "geometry": {"type": "Point", "coordinates": [139.37780671375603, 74.72163289607087]}}, {"type": "Feature", "properties": {"norad_id": 29945, "name": "FENGYUN 1C DEB", "group": "fengyun-1c-debris", "lat": 60.65242972790886, "lon": -2.960831542663671, "alt_km": 859.9038242695115, "timestamp": "2025-12-15T10:55:21.415308+00:00", "meta": {"OBJECT_NAME": "FENGYUN 1C DEB", "OBJECT_ID": "1999-025JT", "EPOCH": "2025-12-14T22:59:01.188096", "MEAN_MOTION": 14.05572422, "ECCENTRICITY": 0.00307881, "INCLINATION": 98.7917, "RA_OF_ASC_NODE": 12.5329, "ARG_OF_PERICENTER": 356.1701, "MEAN_ANOMALY": 69.6809, "EPHEMERIS_TYPE": 0, "CLASSIFICATION_TYPE": "U", "NORAD_CAT_ID": 29945, "ELEMENT_SET_NO": 999, "REV_AT_EPOCH": 97009, "BSTAR": 0.00013405627, "MEAN_MOTION_DOT": 1.76e-06, "MEAN_MOTION_DDOT": 0}, "tle": {"line1": "1 29945U 99025JT  25348.95765264  .00000176  00000+0  13406-3 0  9990", "line2": "2 29945  98.7917  12.5329 0030788 356.1701  69.6809 14.05572422970098"}}, "geometry": {"type": "Point", "coordinates": [-2.960831542663671, 60.65242972790886]}}, {"type": "Feature", "properties": {"norad_id": 29946, "name": "FENGYUN 1C DEB", "group": "fengyun-1c-debris", "lat": 68.16503820474912, "lon": -175.69012651068653, "alt_km": 899.1472631581792, "timestamp": "2025-12-15T10:55:21.415319+00:00", "meta": {"OBJECT_NAME": "FENGYUN 1C DEB", "OBJECT_ID": "1999-025JU", "EPOCH": "2025-12-14T22:46:27.939936", "MEAN_MOTION": 14.08256458, "ECCENTRICITY": 0.00805732, "INCLINATION": 98.7799, "RA_OF_ASC_NODE": 341.1295, "ARG_OF_PERICENTER": 337.2388, "MEAN_ANOMALY": 87.392, "EPHEMERIS_TYPE": 0, "CLASSIFICATION_TYPE": "U", "NORAD_CAT_ID": 29946, "ELEMENT_SET_NO": 999, "REV_AT_EPOCH": 97078, "BSTAR": 0.00026509169, "MEAN_MOTION_DOT": 4.23e-06, "MEAN_MOTION_DDOT": 0}, "tle": {"line1": "1 29946U 99025JU  25348.94893449  .00000423  00000+0  26509-3 0  9990", "line2": "2 29946  98.7799 341.1295 0080573 337.2388  87.3920 14.08256458970786"}}, "geometry": {"type": "Point", "coordinates": [-175.69012651068653, 68.16503820474912]}}, {"type": "Feature", "properties": {"norad_id": 29947, "name": "FENGYUN 1C DEB", "group": "fengyun-1c-debris", "lat": 37.589001977547284, "lon": 13.051169600696996, "alt_km": 872.6711505757421, "timestamp": "2025-12-15T10:55:21.415329+00:00", "meta": {"OBJECT_NAME": "FENGYUN 1C DEB", "OBJECT_ID": "1999-025JV", "EPOCH": "2025-12-14T20:10:48.606240", "MEAN_MOTION": 14.03071175, "ECCENTRICITY": 0.00408977, "INCLINATION": 98.837, "RA_OF_ASC_NODE": 19.3328, "ARG_OF_PERICENTER": 115.1167, "MEAN_ANOMALY": 62.5513, "EPHEMERIS_TYPE": 0, "CLASSIFICATION_TYPE": "U", "NORAD_CAT_ID": 29947, "ELEMENT_SET_NO": 999, "REV_AT_EPOCH": 96779, "BSTAR": 0.00047844849, "MEAN_MOTION_DOT": 7.07e-06, "MEAN_MOTION_DDOT": 0}, "tle": {"line1": "1 29947U 99025JV  25348.84084035  .00000707  00000+0  47845-3 0  9994", "line2": "2 29947  98.8370  19.3328 0040897 115.1167  62.5513 14.03071175967793"}}, "geometry": {"type": "Point", "coordinates": [13.051169600696996, 37.589001977547284]}}, {"type": "Feature", "properties": {"norad_id": 29948, "name": "FENGYUN 1C DEB", "group": "fengyun-1c-debris", "lat": -62.29592394554193, "lon": -7.229569923509453, "alt_km": 858.8325397350982, "timestamp": "2025-12-15T10:55:21.415398+00:00", "meta": {"OBJECT_NAME": "FENGYUN 1C DEB", "OBJECT_ID": "1999-025JW", "EPOCH": "2025-12-14T21:42:26.150112", "MEAN_MOTION": 14.06193196, "ECCENTRICITY": 0.00838151, "INCLINATION": 98.8242, "RA_OF_ASC_NODE": 335.0268, "ARG_OF_PERICENTER": 227.4608, "MEAN_ANOMALY": 162.1021, "EPHEMERIS_TYPE": 0, "CLASSIFICATION_TYPE": "U", "NORAD_CAT_ID": 29948, "ELEMENT_SET_NO": 999, "REV_AT_EPOCH": 97007, "BSTAR": 0.00027839422, "MEAN_MOTION_DOT": 4.29e-06, "MEAN_MOTION_DDOT": 0}, "tle": {"line1": "1 29948U 99025JW  25348.90446933  .00000429  00000+0  27839-3 0  9993", "line2": "2 29948  98.8242 335.0268 0083815 227.4608 162.1021 14.06193196970074"}}, "geometry": {"type": "Point", "coordinates": [-7.229569923509453, -62.29592394554193]}}, {"type": "Feature", "properties": {"norad_id": 29949, "name": "FENGYUN 1C DEB", "group": "fengyun-1c-debris", "lat": -72.39838728033878, "lon": 155.966790573, "alt_km": 865.2133143057117, "timestamp": "2025-12-15T10:55:21.415411+00:00", "meta": {"OBJECT_NAME": "FENGYUN 1C DEB", "OBJECT_ID": "1999-025JX", "EPOCH": "2025-12-14T19:11:45.089952", "MEAN_MOTION": 14.06826848, "ECCENTRICITY": 0.00231806, "INCLINATION": 98.7623, "RA_OF_ASC_NODE": 4.42, "ARG_OF_PERICENTER": 299.4832, "MEAN_ANOMALY": 238.461, "EPHEMERIS_TYPE": 0, "CLASSIFICATION_TYPE": "U", "NORAD_CAT_ID": 29949, "ELEMENT_SET_NO": 999, "REV_AT_EPOCH": 97136, "BSTAR": 0.00016924111, "MEAN_MOTION_DOT": 2.39e-06, "MEAN_MOTION_DDOT": 0}, "tle": {"line1": "1 29949U 99025JX  25348.79982743  .00000239  00000+0  16924-3 0  9997", "line2": "2 29949  98.7623   4.4200 0023180 299.4832 238.4610 14.06826848971368"}}, "geometry": {"type": "Point", "coordinates": [155.966790573, -72.39838728033878]}}, {"type": "Feature", "properties": {"norad_id": 29950, "name": "FENGYUN 1C DEB", "group": "fengyun-1c-debris", "lat": 54.669481161043265, "lon": -147.00778325163782, "alt_km": 860.9135769060285, "timestamp": "2025-12-15T10:55:21.415439+00:00", "meta": {"OBJECT_NAME": "FENGYUN 1C DEB", "OBJECT_ID": "1999-025JY", "EPOCH": "2025-12-14T22:44:34.126080", "MEAN_MOTION": 14.10335095, "ECCENTRICITY": 0.0032384, "INCLINATION": 98.7409, "RA_OF_ASC_NODE": 19.9635, "ARG_OF_PERICENTER": 235.6531, "MEAN_ANOMALY": 193.8003, "EPHEMERIS_TYPE": 0, "CLASSIFICATION_TYPE": "U", "NORAD_CAT_ID": 29950, "ELEMENT_SET_NO": 999, "REV_AT_EPOCH": 97322, "BSTAR": 0.00014134316, "MEAN_MOTION_DOT": 2.09e-06, "MEAN_MOTION_DDOT": 0}, "tle": {"line1": "1 29950U 99025JY  25348.94761720  .00000209  00000+0  14134-3 0  9994", "line2": "2 29950  98.7409  19.9635 0032384 235.6531 193.8003 14.10335095973220"}}, "geometry": {"type": "Point", "coordinates": [-147.00778325163782, 54.669481161043265]}}]}